ONEWEB-0628             
1 55169U 23004AF  25335.41612920 -.00000329  00000+0 -95076-3 0  9993
2 55169  87.8955  29.9383 0001635 123.9705 236.1579 13.12441230142096
ONEWEB-0629             
1 55170U 23004AG  25335.45163860  .00000061  00000+0  12453-3 0  9992
2 55170  87.9122  45.1980 0001930 110.8855 249.2484 13.17647334141544
ONEWEB-0631             
1 55171U 23004AH  25335.13934668  .00000107  00000+0  23747-3 0  9999
2 55171  87.9195  14.7683 0001452  80.0669 280.0627 13.18685810143576
ONEWEB-0709             
1 55172U 23004AJ  25335.51940508  .00000042  00000+0  82513-4 0  9997
2 55172  87.8864  60.4501 0001741  72.7764 287.3554 13.11420381139961
ONEWEB-0710             
1 55173U 23004AK  25335.46599145 -.00000017  00000+0 -76173-4 0  9998
2 55173  87.9120  45.1893 0001565 104.7212 255.4093 13.17648844141543
ONEWEB-0711             
1 55174U 23004AL  25335.49056836 -.00000292  00000+0 -86017-3 0  9999
2 55174  87.8870  60.4285 0001229 129.5549 230.5688 13.11417379139929
ONEWEB-0713             
1 55175U 23004AM  25335.50921796 -.00000761  00000+0 -21819-2 0  9997
2 55175  87.8865  60.4280 0001421 116.1712 243.9562 13.11418474139912
ONEWEB-0715             
1 55176U 23004AN  25335.19895095 -.00000377  00000+0 -11003-2 0  9992
2 55176  87.8869  60.4899 0001325  78.7448 281.3829 13.11418210139915
